UMBRA-10                
1 60547U 24149CH  26167.73742098  .00013025  00000+0  64287-3 0  9994
2 60547  97.6983 254.9626 0000493  71.7039 288.4247 15.18030439100665
ICEYE-X33               
1 60548U 24149CJ  26168.10246662  .00003723  00000+0  29727-3 0  9997
2 60548  97.7284 247.2443 0001897  98.5029 261.6410 15.00885229100197
ICEYE-X40               
1 60549U 24149CK  26168.10218500  .00002130  00000+0  18556-3 0  9997
2 60549  97.6820 244.5991 0006629  82.3690 277.8284 14.97942118100064
SATELIOT_1              
1 60550U 24149CL  26167.75940461  .00002426  00000+0  20993-3 0  9993
2 60550  97.6754 243.6640 0008366  81.9705 278.2466 14.98067174100007
BRO-14                  
1 60551U 24149CM  26167.72716816  .00000573  00000+0  55948-4 0  9996
2 60551  97.6874 243.5132 0008054  97.9385 262.2750 14.96175373 99927
SATELIOT_3              
1 60552U 24149CN  26167.93554551  .00001626  00000+0  14245-3 0  9990
2 60552  97.6815 244.6293 0005866  87.1097 273.0797 14.98052174100044
BRO-15                  
1 60553U 24149CP  26167.70961351  .00002049  00000+0  18684-3 0  9997
2 60553  97.6809 243.0978 0009663  89.5707 270.6621 14.96166191 99931
UM5-RIBAT               
1 60554U 24149CQ  26167.73888464  .00002472  00000+0  19793-3 0  9996
2 60554  97.6637 245.5455 0003517  62.7656 297.3926 15.01073927100125
UM5-EOSAT               
1 60555U 24149CR  26168.10525390  .00003677  00000+0  28849-3 0  9995
2 60555  97.6712 246.8419 0008811 114.6903 245.5239 15.01530488100209
LASARSAT                
1 62391U 24247Q   26167.97623209  .00026221  00000+0  52389-3 0  9992
2 62391  44.9742 263.4006 0008180 330.0323  30.0098 15.46364825 83280
CROCUBE                 
1 62394U 24247T   26165.58698051  .00034757  00000+0  65094-3 0  9997
2 62394  44.9722 274.1999 0008187 320.7516  39.2780 15.48102542 82947
TEVEL2-4                
1 63213U 25052D   26167.98658140  .00016047  00000+0  48034-3 0  9991
2 63213  97.3904  64.3780 0004860 103.4475 256.7310 15.34605865 70081
TEVEL2-5                
1 63214U 25052E   26167.94184661  .00015322  00000+0  46132-3 0  9992
2 63214  97.3902  64.2812 0004796 104.9018 255.2757 15.34430962 70074
TEVEL2-6                
1 63215U 25052F   26168.14981521  .00014311  00000+0  43150-3 0  9990
2 63215  97.3903  64.4736 0004692 104.9299 255.2464 15.34400540 70107
TEVEL2-1                
1 63217U 25052H   26167.98311731  .00015254  00000+0  46759-3 0  9998
2 63217  97.3878  63.9315 0004776 114.0246 246.1497 15.33862790 70062
TEVEL2-3                
1 63218U 25052J   26167.97776757  .00015147  00000+0  46354-3 0  9993
2 63218  97.3882  63.9480 0004723 114.1810 245.9927 15.33918227 70063
TEVEL2-2                
1 63219U 25052K   26167.65724747  .00014434  00000+0  44263-3 0  9996
2 63219  97.3883  63.6082 0004715 115.1533 245.0199 15.33861744 70012
TEVEL2-9                
1 63237U 25052AD  26167.96058942  .00013167  00000+0  42947-3 0  9996
2 63237  97.3943  63.2870 0007801 131.5476 228.6436 15.31891765 69997
TEVEL2-7                
1 63238U 25052AE  26167.67478499  .00012652  00000+0  41668-3 0  9995
2 63238  97.3945  62.9183 0007828 132.5601 227.6303 15.31589641 69947
TEVEL2-8                
1 63239U 25052AF  26167.68303146  .00012386  00000+0  40821-3 0  9997
2 63239  97.3946  62.9032 0007849 133.0156 227.1744 15.31573973 69941
FORESAIL-1 PRIME        
1 66778U 25276DS  26167.99656515  .00004149  00000+0  20320-3 0  9991
2 66778  97.4201 241.2708 0003952 103.8378 256.3296 15.18701638 30378
